{
    "links": {
        "self": "http://www.neowsapp.com/rest/v1/neo/3767166?api_key=iIulBulltgU6a56xZRHN4H3l9WmuAYTsLGpBGhQ2"
    },
    "id": "3767166",
    "neo_reference_id": "3767166",
    "name": "(2017 BQ30)",
    "designation": "2017 BQ30",
    "nasa_jpl_url": "http://ssd.jpl.nasa.gov/sbdb.cgi?sstr=3767166",
    "absolute_magnitude_h": 25.4,
    "estimated_diameter": {
        "kilometers": {
            "estimated_diameter_min": 0.022108281,
            "estimated_diameter_max": 0.0494356193
        },
        "meters": {
            "estimated_diameter_min": 22.1082810359,
            "estimated_diameter_max": 49.435619262
        },
        "miles": {
            "estimated_diameter_min": 0.0137374447,
            "estimated_diameter_max": 0.0307178602
        },
        "feet": {
            "estimated_diameter_min": 72.5337327539,
            "estimated_diameter_max": 162.1903570994
        }
    },
    "is_potentially_hazardous_asteroid": false,
    "close_approach_data": [
        {
            "close_approach_date": "2017-01-21",
            "close_approach_date_full": "2017-Jan-21 03:09",
            "epoch_date_close_approach": 1484968140000,
            "relative_velocity": {
                "kilometers_per_second": "10.5639733535",
                "kilometers_per_hour": "38030.3040726353",
                "miles_per_hour": "23630.5519944661"
            },
            "miss_distance": {
                "astronomical": "0.0188411341",
                "lunar": "7.3292011649",
                "kilometers": "2818593.529744367",
                "miles": "1751392.8062195846"
            },
            "orbiting_body": "Earth"
        }
    ],
    "orbital_data": {
        "orbit_id": "6",
        "orbit_determination_date": "2017-04-06 08:20:40",
        "first_observation_date": "2017-01-28",
        "last_observation_date": "2017-02-06",
        "data_arc_in_days": 9,
        "observations_used": 32,
        "orbit_uncertainty": "7",
        "minimum_orbit_intersection": ".00919428",
        "jupiter_tisserand_invariant": "3.759",
        "epoch_osculation": "2459000.5",
        "eccentricity": ".5358375596674597",
        "semi_major_axis": "1.897873874301969",
        "inclination": "4.047878568801875",
        "ascending_node_longitude": "311.2385891772497",
        "orbital_period": "954.9913722690255",
        "perihelion_distance": ".8809217689393746",
        "perihelion_argument": "126.5328655085596",
        "aphelion_distance": "2.914825979664563",
        "perihelion_time": "2458697.930911189339",
        "mean_anomaly": "114.0584879976835",
        "mean_motion": ".376966756406032",
        "equinox": "J2000",
        "orbit_class": {
            "orbit_class_type": "APO",
            "orbit_class_description": "Near-Earth asteroid orbits which cross the Earth’s orbit similar to that of 1862 Apollo",
            "orbit_class_range": "a (semi-major axis) > 1.0 AU; q (perihelion) < 1.017 AU"
        }
    },
    "is_sentry_object": false
}